{
  "norad_id": 56326,
  "name": "STARLINK-5980",
  "history": [
    {
      "epoch": "2026-03-28T20:00:01.999872Z",
      "apogee_km": 550.9420844428432,
      "perigee_km": 548.2966513961883,
      "latitude_deg": -61.18038855534929,
      "longitude_deg": 128.70323548576593,
      "height_km": 574.4293155210291,
      "semi_major_axis_km": 6927.7563679195155,
      "eccentricity": 0.00019093,
      "inclination_deg": 97.6029,
      "raan_deg": 88.9217,
      "arg_perigee_deg": 82.279,
      "mean_anomaly_deg": 159.6143,
      "mean_motion_rev_day": 15.05614722
    },
    {
      "epoch": "2026-03-29T04:00:01.999584Z",
      "apogee_km": 550.7087696804847,
      "perigee_km": 548.2120635715328,
      "latitude_deg": -66.50415515471272,
      "longitude_deg": 4.885139986241577,
      "height_km": 575.8743374538249,
      "semi_major_axis_km": 6927.597416626008,
      "eccentricity": 0.0001802,
      "inclination_deg": 97.6025,
      "raan_deg": 89.2495,
      "arg_perigee_deg": 84.846,
      "mean_anomaly_deg": 162.6629,
      "mean_motion_rev_day": 15.05666541
    }
  ]
}